[{"OBJECT_NAME":"MACSAT (FINCH 1)","OBJECT_ID":"2023-155J","EPOCH":"2026-03-09T18:08:25.338048","MEAN_MOTION":15.19694714,"ECCENTRICITY":0.00037335,"INCLINATION":97.5815,"RA_OF_ASC_NODE":150.2689,"ARG_OF_PERICENTER":71.2233,"MEAN_ANOMALY":288.9406,"EPHEMERIS_TYPE":0,"CLASSIFICATION_TYPE":"U","NORAD_CAT_ID":58024,"ELEMENT_SET_NO":999,"REV_AT_EPOCH":13322,"BSTAR":0.00027017053,"MEAN_MOTION_DOT":5.699e-5,"MEAN_MOTION_DDOT":0},{"OBJECT_NAME":"SEMI-1L","OBJECT_ID":"2025-248B","EPOCH":"2026-03-09T21:45:29.470176","MEAN_MOTION":15.19686744,"ECCENTRICITY":0.00031601,"INCLINATION":45.401,"RA_OF_ASC_NODE":293.7683,"ARG_OF_PERICENTER":233.4866,"MEAN_ANOMALY":126.573,"EPHEMERIS_TYPE":0,"CLASSIFICATION_TYPE":"U","NORAD_CAT_ID":66294,"ELEMENT_SET_NO":999,"REV_AT_EPOCH":1940,"BSTAR":0.00059102976,"MEAN_MOTION_DOT":0.0001258,"MEAN_MOTION_DDOT":0}]
